{"fetched_at":"2026-03-30T09:12:31Z","count":15922,"tles":[{"name":"STARLINK-30889","line1":"1 58368U 23177T   26087.44461323 -.00000067  00000+0  70998-5 0  9991","line2":"2 58368  42.9998 244.8589 0001542 267.7175  92.3500 15.27587211131092","category":"Starlink"}]}